norad_id,name,regime,epoch,line1,line2,inclination,eccentricity,mean_motion,raan,arg_pericenter,mean_anomaly
28082,CHINASAT 20,EGO,15321.94941972,1 28082U 03052A   15321.94941972 -.00000323 +00000-0 +00000-0 0 0712\,2 28082 002.3727 074.0058 0005136 187.2657 240.4718 01.0026863104401,2.3727,0.0005136,1.00268631,74.0058,187.2657,240.4718
28082,CHINASAT 20,EGO,15322.70123632,1 28082U 03052A   15322.70123632 -.00000324 +00000-0 +00000-0 0 0717\,2 28082 002.3743 074.0318 0005082 185.4988 153.5996 01.0026829304401,2.3743,0.0005082,1.00268293,74.0318,185.4988,153.5996
28082,CHINASAT 20,EGO,15323.74439718,1 28082U 03052A   15323.74439718 -.00000325  00000-0  00000+0 0  7153\,2 28082   2.3765  74.0233 0005129 186.7254 168.9318  1.00267805 44029,2.3765,0.0005129,1.00267805,74.0233,186.7254,168.9318
28082,CHINASAT 20,EGO,15324.87075844,1 28082U 03052A   15324.87075844 -.00000327  00000-0  00000+0 0  7167\,2 28082   2.3786  74.0114 0005136 186.8921 215.3588  1.00267280 44045,2.3786,0.0005136,1.0026728,74.0114,186.8921,215.3588
28082,CHINASAT 20,EGO,15324.92325110,1 28082U 03052A   15324.92325110 -.00000327 +00000-0 +00000-0 0 0717\,2 28082 002.3787 074.0109 0005136 186.8900 234.3097 01.0026725604404,2.3787,0.0005136,1.00267256,74.0109,186.89,234.3097
28082,CHINASAT 20,EGO,15324.93573922,1 28082U 03052A   15324.93573922 -.00000327 +00000-0 +00000-0 0 0718\,2 28082 002.3787 074.0108 0005135 186.8843 238.8233 01.0026725004404,2.3787,0.0005135,1.0026725,74.0108,186.8843,238.8233
28082,CHINASAT 20,EGO,15326.96455635,1 28082U 03052A   15326.96455635 -.00000330  00000-0  00000+0 0  7174\,2 28082   2.3841  74.1224 0005249 193.8764 244.1088  1.00274062 44061,2.3841,0.0005249,1.00274062,74.1224,193.8764,244.1088
28082,CHINASAT 20,EGO,15327.90142274,1 28082U 03052A   15327.90142274 -.00000332 +00000-0 +00000-0 0 0723\,2 28082 002.3858 074.1057 0005270 193.7367 222.4696 01.0027396704407,2.3858,0.000527,1.00273967,74.1057,193.7367,222.4696
28082,CHINASAT 20,EGO,15328.38437241,1 28082U 03052A   15328.38437241 -.00000332  00000-0  00000+0 0  7188\,2 28082   2.3871  74.0919 0005314 193.3761  37.1864  1.00273865 44072,2.3871,0.0005314,1.00273865,74.0919,193.3761,37.1864
28082,CHINASAT 20,EGO,15328.96943201,1 28082U 03052A   15328.96943201 -.00000333 +00000-0 +00000-0 0 0723\,2 28082 002.3882 074.0850 0005330 193.6640 248.1078 01.0027367204408,2.3882,0.000533,1.00273672,74.085,193.664,248.1078
28082,CHINASAT 20,EGO,15329.86150000,1 28082U 03052A   15329.86150000 -.00000334  00000-0  00000+0 0  7190\,2 28082   2.3900  74.0831 0005335 193.7797 210.0234  1.00273336 44092,2.39,0.0005335,1.00273336,74.0831,193.7797,210.0234
28082,CHINASAT 20,EGO,15329.92448839,1 28082U 03052A   15329.92448839 -.00000334 +00000-0 +00000-0 0 0723\,2 28082 002.3902 074.0812 0005343 193.8719 232.6708 01.0027328604409,2.3902,0.0005343,1.00273286,74.0812,193.8719,232.6708
28082,CHINASAT 20,EGO,15330.87808963,1 28082U 03052A   15330.87808963 -.00000335  00000-0  00000+0 0  7204\,2 28082   2.3920  74.0664 0005353 194.1965 216.6015  1.00272892 44107,2.392,0.0005353,1.00272892,74.0664,194.1965,216.6015
28082,CHINASAT 20,EGO,15331.89640606,1 28082U 03052A   15331.89640606 -.00000335 +00000-0 +00000-0 0 0728\,2 28082 002.3941 074.0540 0005472 195.3801 223.0295 01.0027244004411,2.3941,0.0005472,1.0027244,74.054,195.3801,223.0295
28082,CHINASAT 20,EGO,15331.94919557,1 28082U 03052A   15331.94919557 -.00000335  00000-0  00000+0 0  7216\,2 28082   2.3943  74.0532 0005479 195.4399 242.0266  1.00272406 44113,2.3943,0.0005479,1.00272406,74.0532,195.4399,242.0266
28082,CHINASAT 20,EGO,15332.89244985,1 28082U 03052A   15332.89244985 -.00000335 +00000-0 +00000-0 0 0730\,2 28082 002.3963 074.0452 0005485 195.4480 222.5291 01.0027201104412,2.3963,0.0005485,1.00272011,74.0452,195.448,222.5291
28082,CHINASAT 20,EGO,15333.02630132,1 28082U 03052A   15333.02630132 -.00000335  00000-0  00000+0 0  7227\,2 28082   2.3966  74.0436 0005512 195.7580 270.5383  1.00271922 44123,2.3966,0.0005512,1.00271922,74.0436,195.758,270.5383
28082,CHINASAT 20,EGO,15333.96817821,1 28082U 03052A   15333.96817821 -.00000334 +00000-0 +00000-0 0 0734\,2 28082 002.3984 074.0384 0005596 197.0644 249.2409 01.0027158504413,2.3984,0.0005596,1.00271585,74.0384,197.0644,249.2409
28082,CHINASAT 20,EGO,15334.57520073,1 28082U 03052A   15334.57520073 -.00000333  00000-0  00000+0 0  7239\,2 28082   2.3997  74.0314 0005662 197.9886 107.4491  1.00271356 44131,2.3997,0.0005662,1.00271356,74.0314,197.9886,107.4491
28082,CHINASAT 20,EGO,15334.92683593,1 28082U 03052A   15334.92683593 -.00000333 +00000-0 +00000-0 0 0734\,2 28082 002.4004 074.0332 0005658 198.0404 234.3306 01.0027122804414,2.4004,0.0005658,1.00271228,74.0332,198.0404,234.3306
28082,CHINASAT 20,EGO,15335.88198197,1 28082U 03052A   15335.88198197 -.00000330  00000-0  00000+0 0  7240\,2 28082   2.4025  74.0192 0005652 198.7709 218.4045  1.00270805 44158,2.4025,0.0005652,1.00270805,74.0192,198.7709,218.4045
28082,CHINASAT 20,EGO,15335.93028289,1 28082U 03052A   15335.93028289 -.00000330 +00000-0 +00000-0 0 0725\,2 28082 002.4026 074.0186 0005651 198.7698 235.8420 01.0027078304415,2.4026,0.0005651,1.00270783,74.0186,198.7698,235.842
28082,CHINASAT 20,EGO,15336.89065148,1 28082U 03052A   15336.89065148 -.00000327  00000-0  00000+0 0  7258\,2 28082   2.4045  74.0122 0005691 199.5371 221.7564  1.00270407 44162,2.4045,0.0005691,1.00270407,74.0122,199.5371,221.7564
28082,CHINASAT 20,EGO,15336.89510646,1 28082U 03052A   15336.89510646 -.00000328 +00000-0 +00000-0 0 0726\,2 28082 002.4045 074.0121 0005689 199.5360 223.3657 01.0027040604416,2.4045,0.0005689,1.00270406,74.0121,199.536,223.3657
28082,CHINASAT 20,EGO,15337.88234110,1 28082U 03052A   15337.88234110 -.00000325 +00000-0 +00000-0 0 0736\,2 28082 002.4066 074.0039 0005692 199.6792 219.6030 01.0026999404417,2.4066,0.0005692,1.00269994,74.0039,199.6792,219.603
28082,CHINASAT 20,EGO,15337.96043764,1 28082U 03052A   15337.96043764 -.00000324  00000-0  00000+0 0  7287\,2 28082   2.4067  74.0028 0005691 199.6765 247.7979  1.00269959 44178,2.4067,0.0005691,1.00269959,74.0028,199.6765,247.7979
28082,CHINASAT 20,EGO,15338.96792817,1 28082U 03052A   15338.96792817 -.00000321 +00000-0 +00000-0 0 0737\,2 28082 002.4087 073.9945 0005686 199.8995 251.2659 01.0026954104418,2.4087,0.0005686,1.00269541,73.9945,199.8995,251.2659
28082,CHINASAT 20,EGO,15339.91892466,1 28082U 03052A   15339.91892466 -.00000319 +00000-0 +00000-0 0 0735\,2 28082 002.4105 073.9843 0005671 200.0429 234.4207 01.0026913404419,2.4105,0.0005671,1.00269134,73.9843,200.0429,234.4207
28082,CHINASAT 20,EGO,15340.98127606,1 28082U 03052A   15340.98127606 -.00000316 +00000-0 +00000-0 0 0744\,2 28082 002.4125 073.9741 0005653 200.2188 257.7381 01.0026868704420,2.4125,0.0005653,1.00268687,73.9741,200.2188,257.7381
28082,CHINASAT 20,EGO,15341.89481917,1 28082U 03052A   15341.89481917 -.00000315 +00000-0 +00000-0 0 0738\,2 28082 002.4135 073.9380 0005633 199.8321 227.9263 01.0026829004421,2.4135,0.0005633,1.0026829,73.938,199.8321,227.9263
28082,CHINASAT 20,EGO,15342.88809723,1 28082U 03052A   15342.88809723 -.00000313  00000-0  00000+0 0  7311\,2 28082   2.4154  73.9283 0005627 199.9556 226.3581  1.00267843 44224,2.4154,0.0005627,1.00267843,73.9283,199.9556,226.3581
28082,CHINASAT 20,EGO,15342.95439472,1 28082U 03052A   15342.95439472 -.00000313 +00000-0 +00000-0 0 0732\,2 28082 002.4156 073.9274 0005627 199.9497 250.2963 01.0026781304422,2.4156,0.0005627,1.00267813,73.9274,199.9497,250.2963
28082,CHINASAT 20,EGO,15343.63416457,1 28082U 03052A   15343.63416457 -.00000313 +00000-0 +00000-0 0 0736\,2 28082 002.4172 073.9447 0005632 201.7577 133.8476 01.0026755804422,2.4172,0.0005632,1.00267558,73.9447,201.7577,133.8476
28082,CHINASAT 20,EGO,15343.68776552,1 28082U 03052A   15343.68776552 -.00000313 +00000-0 +00000-0 0 0737\,2 28082 002.4174 073.9466 0005646 201.7505 153.1998 01.0026747104422,2.4174,0.0005646,1.00267471,73.9466,201.7505,153.1998
28082,CHINASAT 20,EGO,15345.87931148,1 28082U 03052A   15345.87931148 -.00000308  00000-0  00000+0 0  7381\,2 28082   2.4203  74.0367 0004159 257.6106 168.3677  1.00227405 44250,2.4203,0.0004159,1.00227405,74.0367,257.6106,168.3677
28082,CHINASAT 20,EGO,15347.52901933,1 28082U 03052A   15347.52901933 -.00000317  00000-0  00000+0 0  7395\,2 28082   2.4248  74.0133 0004805 208.8291  92.7636  1.00275399 44262,2.4248,0.0004805,1.00275399,74.0133,208.8291,92.7636
28082,CHINASAT 20,EGO,15347.95970389,1 28082U 03052A   15347.95970389 -.00000318 +00000-0 +00000-0 0 0745\,2 28082 002.4257 074.0085 0004785 208.8049 248.2662 01.0027499604427,2.4257,0.0004785,1.00274996,74.0085,208.8049,248.2662
28082,CHINASAT 20,EGO,15348.75517907,1 28082U 03052A   15348.75517907 -.00000319  00000-0  00000+0 0  7421\,2 28082   2.4273  73.9913 0004874 209.9171 174.3294  1.00274391 44289,2.4273,0.0004874,1.00274391,73.9913,209.9171,174.3294
28082,CHINASAT 20,EGO,15348.90417059,1 28082U 03052A   15348.90417059 -.00000320 +00000-0 +00000-0 0 0743\,2 28082 002.4276 073.9893 0004873 209.9214 228.1121 01.0027432304428,2.4276,0.0004873,1.00274323,73.9893,209.9214,228.1121
28082,CHINASAT 20,EGO,15349.75771356,1 28082U 03052A   15349.75771356 -.00000321  00000-0  00000+0 0  7436\,2 28082   2.4292  73.9814 0004874 209.9120 176.2522  1.00273898 44291,2.4292,0.0004874,1.00273898,73.9814,209.912,176.2522
28082,CHINASAT 20,EGO,15349.97831032,1 28082U 03052A   15349.97831032 -.00000322 +00000-0 +00000-0 0 0747\,2 28082 002.4297 073.9786 0004879 209.9388 255.8616 01.0027377404429,2.4297,0.0004879,1.00273774,73.9786,209.9388,255.8616
28082,CHINASAT 20,EGO,15350.87894785,1 28082U 03052A   15350.87894785 -.00000323 +00000-0 +00000-0 0 0745\,2 28082 002.4314 073.9709 0004885 209.9007 221.0285 01.0027329204430,2.4314,0.0004885,1.00273292,73.9709,209.9007,221.0285
